GLOBALSTAR M063 [+]     
1 26081U 00008A   24087.63329924 -.00000067  00000+0  22364-3 0  9997
2 26081  51.9940 207.6157 0005127 171.6237 290.6070 11.86152245104584
GLOBALSTAR M062 [-]     
1 26082U 00008B   24087.84012801 -.00000079  00000+0  13437-3 0  9998
2 26082  51.9866 328.3192 0006344 237.2183 202.3154 12.43431211441093
GLOBALSTAR M060 [-]     
1 26083U 00008C   24087.86025749 -.00000106  00000+0 -15363-3 0  9998
2 26083  52.0004 225.1226 0002588 297.6144 234.2932 12.17628391 97997
GLOBALSTAR M064 [-]     
1 26084U 00008D   24087.90825222 -.00000062  00000+0  30367-3 0  9999
2 26084  52.0041 310.9855 0000691 297.4816  62.5947 11.88516863114037
GLOBALSTAR M065 [+]     
1 31571U 07020A   24087.86886652 -.00000058  00000+0  25852-3 0  9994
2 31571  51.9878 144.6679 0010432  41.9141 129.0920 12.61964928777051
GLOBALSTAR M072 [+]     
1 31574U 07020D   24087.62596603 -.00000062  00000+0  23174-3 0  9995
2 31574  52.0074 197.2015 0000926 128.1297 336.2350 12.62269343776585
GLOBALSTAR M071 [P]     
1 31576U 07020F   24087.82949619 -.00000077  00000+0  14656-3 0  9999
2 31576  52.0051 105.8192 0000911 220.8813 308.7667 12.62270223439367
